{"fetched_at":"2026-03-29T16:36:15Z","count":15609,"tles":[{"name":"STARLINK-3544","line1":"1 51803U 22017AM  26087.75226074  .00000519  00000+0  50694-4 0  9997","line2":"2 51803  53.2169 263.5464 0001259  87.9805 272.1332 15.08847938226798","category":"Starlink"}]}