{
  "norad_id": 51803,
  "name": "STARLINK-3544",
  "history": [
    {
      "epoch": "2026-03-28T18:03:15.327936Z",
      "apogee_km": 540.59015304492,
      "perigee_km": 538.8480985153265,
      "latitude_deg": 5.5347236250644363e-05,
      "longitude_deg": 166.5643768644689,
      "height_km": 540.5842199712275,
      "semi_major_axis_km": 6917.856125780123,
      "eccentricity": 0.00012591,
      "inclination_deg": 53.2169,
      "raan_deg": 263.5464,
      "arg_perigee_deg": 87.9805,
      "mean_anomaly_deg": 272.1332,
      "mean_motion_rev_day": 15.08847938
    }
  ]
}